{"fetched_at":"2026-03-29T02:12:04Z","count":15717,"tles":[{"name":"STARLINK-2377","line1":"1 47797U 21018L   26087.48903540  .00001353  00000+0  59205-4 0  9998","line2":"2 47797  53.1575 167.8307 0001187  88.5563 271.5573 15.29367363279425","category":"Starlink"}]}